[{"CCSDS_OMM_VERS":"3.0","COMMENT":"GENERATED VIA SPACE-TRACK.ORG API","CREATION_DATE":"2026-06-20T10:42:50","ORIGINATOR":"18 SPCS","OBJECT_NAME":"NAVSTAR 83 (USA 440)","OBJECT_ID":"2024-242A","CENTER_NAME":"EARTH","REF_FRAME":"TEME","TIME_SYSTEM":"UTC","MEAN_ELEMENT_THEORY":"SGP4","EPOCH":"2026-06-20T01:54:13.834656","MEAN_MOTION":"2.00571569","ECCENTRICITY":"0.00174930","INCLINATION":"54.8474","RA_OF_ASC_NODE":"334.0632","ARG_OF_PERICENTER":"4.3355","MEAN_ANOMALY":"173.0364","EPHEMERIS_TYPE":"0","CLASSIFICATION_TYPE":"U","NORAD_CAT_ID":"62339","ELEMENT_SET_NO":"999","REV_AT_EPOCH":"1131","BSTAR":"0.00000000000000","MEAN_MOTION_DOT":"-0.00000095","MEAN_MOTION_DDOT":"0.0000000000000","SEMIMAJOR_AXIS":"26559.645","PERIOD":"717.948","APOAPSIS":"20227.970","PERIAPSIS":"20135.049","OBJECT_TYPE":"PAYLOAD","RCS_SIZE":"LARGE","COUNTRY_CODE":"US","LAUNCH_DATE":"2024-12-17","SITE":"AFETR","DECAY_DATE":null,"FILE":"5256487","GP_ID":"330847262","TLE_LINE0":"0 NAVSTAR 83 (USA 440)","TLE_LINE1":"1 62339U 24242A   26171.07932679 -.00000095  00000-0  00000-0 0  9992","TLE_LINE2":"2 62339  54.8474 334.0632 0017493   4.3355 173.0364  2.00571569 11317"},{"CCSDS_OMM_VERS":"3.0","COMMENT":"GENERATED VIA SPACE-TRACK.ORG API","CREATION_DATE":"2026-06-23T03:40:42","ORIGINATOR":"18 SPCS","OBJECT_NAME":"NAVSTAR 83 (USA 440)","OBJECT_ID":"2024-242A","CENTER_NAME":"EARTH","REF_FRAME":"TEME","TIME_SYSTEM":"UTC","MEAN_ELEMENT_THEORY":"SGP4","EPOCH":"2026-06-22T01:48:41.783904","MEAN_MOTION":"2.00571761","ECCENTRICITY":"0.00175752","INCLINATION":"54.8465","RA_OF_ASC_NODE":"333.9823","ARG_OF_PERICENTER":"4.4653","MEAN_ANOMALY":"174.2883","EPHEMERIS_TYPE":"0","CLASSIFICATION_TYPE":"U","NORAD_CAT_ID":"62339","ELEMENT_SET_NO":"999","REV_AT_EPOCH":"1135","BSTAR":"0.00000000000000","MEAN_MOTION_DOT":"-0.00000100","MEAN_MOTION_DDOT":"0.0000000000000","SEMIMAJOR_AXIS":"26559.628","PERIOD":"717.948","APOAPSIS":"20228.172","PERIAPSIS":"20134.814","OBJECT_TYPE":"PAYLOAD","RCS_SIZE":"LARGE","COUNTRY_CODE":"US","LAUNCH_DATE":"2024-12-17","SITE":"AFETR","DECAY_DATE":null,"FILE":"5257616","GP_ID":"330973480","TLE_LINE0":"0 NAVSTAR 83 (USA 440)","TLE_LINE1":"1 62339U 24242A   26173.07548361 -.00000100  00000-0  00000-0 0  9992","TLE_LINE2":"2 62339  54.8465 333.9823 0017575   4.4653 174.2883  2.00571761 11357"},{"CCSDS_OMM_VERS":"3.0","COMMENT":"GENERATED VIA SPACE-TRACK.ORG API","CREATION_DATE":"2026-06-24T02:28:56","ORIGINATOR":"18 SPCS","OBJECT_NAME":"NAVSTAR 83 (USA 440)","OBJECT_ID":"2024-242A","CENTER_NAME":"EARTH","REF_FRAME":"TEME","TIME_SYSTEM":"UTC","MEAN_ELEMENT_THEORY":"SGP4","EPOCH":"2026-06-23T01:45:58.658112","MEAN_MOTION":"2.00571849","ECCENTRICITY":"0.00175601","INCLINATION":"54.8459","RA_OF_ASC_NODE":"333.9419","ARG_OF_PERICENTER":"4.4754","MEAN_ANOMALY":"174.9937","EPHEMERIS_TYPE":"0","CLASSIFICATION_TYPE":"U","NORAD_CAT_ID":"62339","ELEMENT_SET_NO":"999","REV_AT_EPOCH":"1137","BSTAR":"0.00000000000000","MEAN_MOTION_DOT":"-0.00000103","MEAN_MOTION_DDOT":"0.0000000000000","SEMIMAJOR_AXIS":"26559.620","PERIOD":"717.947","APOAPSIS":"20228.124","PERIAPSIS":"20134.846","OBJECT_TYPE":"PAYLOAD","RCS_SIZE":"LARGE","COUNTRY_CODE":"US","LAUNCH_DATE":"2024-12-17","SITE":"AFETR","DECAY_DATE":null,"FILE":"5257684","GP_ID":"331042672","TLE_LINE0":"0 NAVSTAR 83 (USA 440)","TLE_LINE1":"1 62339U 24242A   26174.07359558 -.00000103  00000-0  00000-0 0  9994","TLE_LINE2":"2 62339  54.8459 333.9419 0017560   4.4754 174.9937  2.00571849 11373"}]